{
"type": "FeatureCollection",
"name": "GritsAndGravy",
"crs": { "type": "name", "properties": { "name": "urn:ogc:def:crs:OGC:1.3:CRS84" } },
"features": [
{ "type": "Feature", "properties": { "id": 1 }, "geometry": { "type": "MultiLineString", "coordinates": [ [ [ -82.330735225871052, 29.651312581044859 ], [ -82.330741682792691, 29.654612031397939 ], [ -82.330748139714373, 29.657086548174686 ], [ -82.330728768949385, 29.657232436153194 ], [ -82.330677113576073, 29.657389546047334 ], [ -82.33061254435944, 29.657552266750535 ], [ -82.330457578239518, 29.657888929438954 ], [ -82.330386552101217, 29.658017983170865 ], [ -82.330296155197914, 29.658147036737251 ], [ -82.330205758294625, 29.658281701151793 ], [ -82.330115361391321, 29.658382699344422 ], [ -82.328988628561021, 29.659751775954259 ], [ -82.32865932555616, 29.660122096754304 ], [ -82.32842687637627, 29.660397031012103 ], [ -82.328271910256348, 29.660593412164854 ], [ -82.328142771823053, 29.660778571186373 ], [ -82.328020090311469, 29.660958119003013 ], [ -82.327787641131579, 29.661300381140911 ], [ -82.326801346347452, 29.662826519453347 ], [ -82.326639923305862, 29.663107057065314 ], [ -82.326478500264272, 29.663432479715098 ], [ -82.326394560282608, 29.663623244227281 ], [ -82.326317077222683, 29.663830840491265 ], [ -82.326265421849385, 29.664049657711175 ], [ -82.326213766476059, 29.664290917171162 ], [ -82.326168568024414, 29.664638778629751 ], [ -82.326162111102718, 29.66531205545494 ], [ -82.326123369572755, 29.665536480061945 ], [ -82.326084628042793, 29.665800178335356 ], [ -82.326020058826131, 29.666052654757852 ], [ -82.325942575766163, 29.666333183372942 ], [ -82.325826351176218, 29.666602490107373 ], [ -82.325697212742952, 29.66687179612078 ], [ -82.325382437811854, 29.667421626992635 ], [ -82.325072505571981, 29.667926571064111 ], [ -82.324807771783767, 29.668352966305886 ], [ -82.324510753387258, 29.668807411876248 ], [ -82.324342873423987, 29.669093543218995 ], [ -82.324142708852435, 29.669536764672234 ], [ -82.32287715220636, 29.671825776021272 ], [ -82.321471157514083, 29.674440122306194 ], [ -82.32058171655494, 29.676010941461879 ], [ -82.320400922748348, 29.676308272325681 ], [ -82.320239499706744, 29.676599992318632 ], [ -82.320078076665155, 29.676891711465206 ], [ -82.316239639657184, 29.683741945405657 ], [ -82.313027984255072, 29.689648944610941 ], [ -82.275414002068118, 29.757491674001237 ], [ -82.2746768865414, 29.758992716614287 ], [ -82.274180130984249, 29.759877897535606 ], [ -82.273592616255783, 29.760994525582721 ], [ -82.272925169576709, 29.762147556476471 ], [ -82.204366473172328, 29.886415003255145 ], [ -82.204267726254358, 29.88657909863441 ], [ -82.204210123885517, 29.88670038634983 ], [ -82.204168979336359, 29.886828808475908 ], [ -82.204111376967546, 29.886985768627575 ], [ -82.204062003508554, 29.887178401203229 ], [ -82.203234998070457, 29.893156960526131 ], [ -82.201227144071524, 29.90749548003231 ], [ -82.201095481514201, 29.908123188961696 ], [ -82.201062565874878, 29.908579702062156 ], [ -82.201046108055223, 29.909007681193629 ], [ -82.201079023694533, 29.909392860839652 ], [ -82.201177770612517, 29.90984936812092 ], [ -82.201358806628818, 29.91029160755436 ], [ -82.201474011366457, 29.910633985121986 ], [ -82.201687963022096, 29.911033424130025 ], [ -82.201803167759749, 29.911261674272499 ], [ -82.202099408513675, 29.911703907434958 ], [ -82.202412107087298, 29.912032014641394 ], [ -82.202741263480576, 29.912345855305649 ], [ -82.203152708972155, 29.912673960397182 ] ] ] } }
]
}
